IRIDIUM 57 [-]          
1 25273U 98019B   23287.38511697  .00000981  00000+0  33836-3 0  9991
2 25273  86.3994  41.4363 0002107  91.9761 268.1676 14.34939921337233
IRIDIUM 63 [-]          
1 25286U 98021B   23287.15012333  .00000841  00000+0  28596-3 0  9998
2 25286  86.4010 338.5086 0002384  92.4046 267.7424 14.35445717336284
IRIDIUM 69 [-]          
1 25319U 98026A   23287.45153002  .00001020  00000+0  32036-3 0  9996
2 25319  86.4034 353.4744 0001275 168.0690 192.0539 14.39617081335259
IRIDIUM 71 [-]          
1 25320U 98026B   23287.22899848  .00001008  00000+0  31426-3 0  9996
2 25320  86.4021 348.4012 0001211  22.3062 337.8189 14.39951551335741
IRIDIUM 73 [-]          
1 25344U 98032C   23287.43674116  .00001129  00000+0  28617-3 0  9993
2 25344  86.4380 306.1450 0001659  96.9785 263.1609 14.50068641342161
IRIDIUM 82 [-]          
1 25467U 98051A   23286.83970125  .00019216  00000+0  11232-2 0  9992
2 25467  86.3970  42.0600 0147631  44.9999 316.3084 15.02924619331255
IRIDIUM 2 [-]           
1 25527U 98066A   23286.89537164  .00066399  00000+0  15522-2 0  9993
2 25527  85.5145  99.2581 0004530 184.9892 175.1317 15.41897626369415
